[{"OBJECT_NAME":"PRAETORIAN SDA_613","OBJECT_ID":"2025-203M","EPOCH":"2026-03-09T13:55:41.751840","MEAN_MOTION":13.82988142,"ECCENTRICITY":0.0007018,"INCLINATION":81.2965,"RA_OF_ASC_NODE":103.0101,"ARG_OF_PERICENTER":103.9761,"MEAN_ANOMALY":256.2175,"EPHEMERIS_TYPE":0,"CLASSIFICATION_TYPE":"U","NORAD_CAT_ID":65576,"ELEMENT_SET_NO":999,"REV_AT_EPOCH":2491,"BSTAR":0.00021006,"MEAN_MOTION_DOT":2.41e-6,"MEAN_MOTION_DDOT":0},{"OBJECT_NAME":"NIMBUS 7","OBJECT_ID":"1978-098A","EPOCH":"2026-03-09T15:43:26.767488","MEAN_MOTION":13.84509789,"ECCENTRICITY":0.0008958,"INCLINATION":99.485,"RA_OF_ASC_NODE":311.9841,"ARG_OF_PERICENTER":170.2059,"MEAN_ANOMALY":189.9271,"EPHEMERIS_TYPE":0,"CLASSIFICATION_TYPE":"U","NORAD_CAT_ID":11080,"ELEMENT_SET_NO":999,"REV_AT_EPOCH":39292,"BSTAR":2.6718e-5,"MEAN_MOTION_DOT":-1.6e-7,"MEAN_MOTION_DDOT":0}]
